start=new Date('2022-05-10T00:00:00.000Z').valueOf();
sats=[{"OBJECT_ID":"2021-038BE","EPOCH":"2022-05-09T17:50:19.666752","COUNTRY_CODE":"US","REF_FRAME":"TEME","LAUNCH_DATE":"2021-05-04","SITE":"AFETR","OBJECT_NAME":"STARLINK-2570","TLE_LINE2":"2 48405  53.0528 146.2261 0002056  40.3277 319.7864 15.06389665 56305","CLASSIFICATION_TYPE":"U","MEAN_ELEMENT_THEORY":"SGP4","GP_ID":"203141081","RCS_SIZE":"LARGE","MEAN_MOTION_DOT":"-0.00000115","PERIOD":"95.593","ELEMENT_SET_NO":"999","MEAN_MOTION":"15.06389665","ARG_OF_PERICENTER":"40.3277","DECAY_DATE":null,"OBJECT_TYPE":"PAYLOAD","BSTAR":"0.00001122800000","PERIAPSIS":"545.821","SEMIMAJOR_AXIS":"6925.380","MEAN_MOTION_DDOT":"0.0000000000000","INCLINATION":"53.0528","ECCENTRICITY":"0.00020560","CENTER_NAME":"EARTH","MEAN_ANOMALY":"319.7864","TIME_SYSTEM":"UTC","EPHEMERIS_TYPE":"0","TLE_LINE1":"1 48405U 21038BE  22129.74328318 -.00000115  00000-0  11228-4 0  9993","RA_OF_ASC_NODE":"146.2261","REV_AT_EPOCH":"5630","APOAPSIS":"548.669","NORAD_CAT_ID":"48405","FILE":"3438010"},{"TLE_LINE2":"2 48406  53.0557 146.2470 0002443  39.3880 320.7287 15.06394114 56304","REF_FRAME":"TEME","SITE":"AFETR","OBJECT_NAME":"STARLINK-2568","LAUNCH_DATE":"2021-05-04","OBJECT_ID":"2021-038BF","EPOCH":"2022-05-09T17:45:01.061568","COUNTRY_CODE":"US","ELEMENT_SET_NO":"999","ARG_OF_PERICENTER":"39.3880","MEAN_MOTION":"15.06394114","OBJECT_TYPE":"PAYLOAD","DECAY_DATE":null,"GP_ID":"203141834","CLASSIFICATION_TYPE":"U","MEAN_ELEMENT_THEORY":"SGP4","PERIOD":"95.593","MEAN_MOTION_DOT":"-0.00000401","RCS_SIZE":"LARGE","INCLINATION":"53.0557","ECCENTRICITY":"0.00024430","SEMIMAJOR_AXIS":"6925.367","PERIAPSIS":"545.540","BSTAR":"-0.00000796720000","MEAN_MOTION_DDOT":"0.0000000000000","NORAD_CAT_ID":"48406","APOAPSIS":"548.923","REV_AT_EPOCH":"5630","FILE":"3438010","TIME_SYSTEM":"UTC","EPHEMERIS_TYPE":"0","CENTER_NAME":"EARTH","MEAN_ANOMALY":"320.7287","RA_OF_ASC_NODE":"146.2470","TLE_LINE1":"1 48406U 21038BF  22129.73959562 -.00000401  00000-0 -79672-5 0  9991"},{"TLE_LINE2":"2 48407  53.0540 146.2424 0002045  42.1738 317.9408 15.06402998 56299","REF_FRAME":"TEME","SITE":"AFETR","OBJECT_NAME":"STARLINK-2595","LAUNCH_DATE":"2021-05-04","EPOCH":"2022-05-09T17:39:41.734080","COUNTRY_CODE":"US","OBJECT_ID":"2021-038BG","OBJECT_TYPE":"PAYLOAD","DECAY_DATE":null,"ELEMENT_SET_NO":"999","MEAN_MOTION":"15.06402998","ARG_OF_PERICENTER":"42.1738","PERIOD":"95.592","RCS_SIZE":"LARGE","MEAN_MOTION_DOT":"0.00002226","GP_ID":"203142571","CLASSIFICATION_TYPE":"U","MEAN_ELEMENT_THEORY":"SGP4","ECCENTRICITY":"0.00020450","INCLINATION":"53.0540","MEAN_MOTION_DDOT":"0.0000000000000","PERIAPSIS":"545.788","SEMIMAJOR_AXIS":"6925.339","BSTAR":"0.00016827000000","FILE":"3438010","APOAPSIS":"548.621","NORAD_CAT_ID":"48407","REV_AT_EPOCH":"5629","RA_OF_ASC_NODE":"146.2424","TLE_LINE1":"1 48407U 21038BG  22129.73589970  .00002226  00000-0  16827-3 0  9990","TIME_SYSTEM":"UTC","EPHEMERIS_TYPE":"0","CENTER_NAME":"EARTH","MEAN_ANOMALY":"317.9408"},{"PERIAPSIS":"546.104","SEMIMAJOR_AXIS":"6925.353","BSTAR":"0.00003624700000","MEAN_MOTION_DDOT":"0.0000000000000","INCLINATION":"53.0553","ECCENTRICITY":"0.00016090","TIME_SYSTEM":"UTC","EPHEMERIS_TYPE":"0","CENTER_NAME":"EARTH","MEAN_ANOMALY":"294.4627","RA_OF_ASC_NODE":"148.0581","TLE_LINE1":"1 48408U 21038BH  22129.33414079  .00000258  00000-0  36247-4 0  9996","APOAPSIS":"548.332","NORAD_CAT_ID":"48408","REV_AT_EPOCH":"5623","FILE":"3437431","OBJECT_ID":"2021-038BH","EPOCH":"2022-05-09T08:01:09.764256","COUNTRY_CODE":"US","TLE_LINE2":"2 48408  53.0553 148.0581 0001609  65.6530 294.4627 15.06398599 56230","REF_FRAME":"TEME","SITE":"AFETR","OBJECT_NAME":"STARLINK-2592","LAUNCH_DATE":"2021-05-04","GP_ID":"203103527","CLASSIFICATION_TYPE":"U","MEAN_ELEMENT_THEORY":"SGP4","PERIOD":"95.592","MEAN_MOTION_DOT":"0.00000258","RCS_SIZE":"LARGE","ELEMENT_SET_NO":"999","ARG_OF_PERICENTER":"65.6530","MEAN_MOTION":"15.06398599","OBJECT_TYPE":"PAYLOAD","DECAY_DATE":null},{"CLASSIFICATION_TYPE":"U","MEAN_ELEMENT_THEORY":"SGP4","GP_ID":"203141580","RCS_SIZE":"LARGE","MEAN_MOTION_DOT":"-0.00000219","PERIOD":"95.593","ELEMENT_SET_NO":"999","ARG_OF_PERICENTER":"36.2674","MEAN_MOTION":"15.06389299","DECAY_DATE":null,"OBJECT_TYPE":"PAYLOAD","OBJECT_ID":"2021-038BJ","EPOCH":"2022-05-09T18:08:14.660736","COUNTRY_CODE":"US","REF_FRAME":"TEME","OBJECT_NAME":"STARLINK-2596","SITE":"AFETR","LAUNCH_DATE":"2021-05-04","TLE_LINE2":"2 48409  53.0551 151.1767 0002488  36.2674 323.8483 15.06389299 56244","CENTER_NAME":"EARTH","MEAN_ANOMALY":"323.8483","TIME_SYSTEM":"UTC","EPHEMERIS_TYPE":"0","TLE_LINE1":"1 48409U 21038BJ  22129.75572524 -.00000219  00000-0  41924-5 0  9990","RA_OF_ASC_NODE":"151.1767","REV_AT_EPOCH":"5624","NORAD_CAT_ID":"48409","APOAPSIS":"548.969","FILE":"3438010","BSTAR":"0.00000419240000","PERIAPSIS":"545.523","SEMIMAJOR_AXIS":"6925.381","MEAN_MOTION_DDOT":"0.0000000000000","INCLINATION":"53.0551","ECCENTRICITY":"0.00024880"},{"OBJECT_TYPE":"PAYLOAD","DECAY_DATE":null,"ARG_OF_PERICENTER":"52.1916","MEAN_MOTION":"15.06382906","ELEMENT_SET_NO":"999","PERIOD":"95.593","RCS_SIZE":"LARGE","MEAN_MOTION_DOT":"0.00021181","GP_ID":"203142334","MEAN_ELEMENT_THEORY":"SGP4","CLASSIFICATION_TYPE":"U","TLE_LINE2":"2 48410  53.0537 100.4521 0002104  52.1916  76.3588 15.06382906  3590","SITE":"AFETR","LAUNCH_DATE":"2021-05-04","OBJECT_NAME":"STARLINK-2563","REF_FRAME":"TEME","COUNTRY_CODE":"US","EPOCH":"2022-05-09T22:00:00.999936","OBJECT_ID":"2021-038BK","FILE":"3438010","APOAPSIS":"548.723","NORAD_CAT_ID":"48410","REV_AT_EPOCH":"359","RA_OF_ASC_NODE":"100.4521","TLE_LINE1":"1 48410U 21038BK  22129.91667824  .00021181  00000-0  14372-2 0  9992","EPHEMERIS_TYPE":"0","TIME_SYSTEM":"UTC","MEAN_ANOMALY":"76.3588","CENTER_NAME":"EARTH","ECCENTRICITY":"0.00021040","INCLINATION":"53.0537","MEAN_MOTION_DDOT":"0.0000000000000","SEMIMAJOR_AXIS":"6925.401","PERIAPSIS":"545.809","BSTAR":"0.00143720000000"},{"FILE":"3438010","REV_AT_EPOCH":"360","APOAPSIS":"548.484","NORAD_CAT_ID":"48411","TLE_LINE1":"1 48411U 21038BL  22129.91667824  .00022899  00000-0  15513-2 0  9998","RA_OF_ASC_NODE":"95.4473","MEAN_ANOMALY":"342.1494","CENTER_NAME":"EARTH","EPHEMERIS_TYPE":"0","TIME_SYSTEM":"UTC","ECCENTRICITY":"0.00018230","INCLINATION":"53.0537","MEAN_MOTION_DDOT":"0.0000000000000","BSTAR":"0.00155130000000","SEMIMAJOR_AXIS":"6925.357","PERIAPSIS":"545.959","DECAY_DATE":null,"OBJECT_TYPE":"PAYLOAD","MEAN_MOTION":"15.06397384","ARG_OF_PERICENTER":"53.8334","ELEMENT_SET_NO":"999","MEAN_MOTION_DOT":"0.00022899","RCS_SIZE":"LARGE","PERIOD":"95.592","MEAN_ELEMENT_THEORY":"SGP4","CLASSIFICATION_TYPE":"U","GP_ID":"203142072","OBJECT_NAME":"STARLINK-2505","SITE":"AFETR","LAUNCH_DATE":"2021-05-04","REF_FRAME":"TEME","TLE_LINE2":"2 48411  53.0537  95.4473 0001823  53.8334 342.1494 15.06397384  3607","COUNTRY_CODE":"US","EPOCH":"2022-05-09T22:00:00.999936","OBJECT_ID":"2021-038BL"},{"CENTER_NAME":"EARTH","MEAN_ANOMALY":"114.2661","TIME_SYSTEM":"UTC","EPHEMERIS_TYPE":"0","TLE_LINE1":"1 48412U 21038BM  22129.91667824  .00015381  00000-0  10496-2 0  9992","RA_OF_ASC_NODE":"95.4466","REV_AT_EPOCH":"359","APOAPSIS":"548.701","NORAD_CAT_ID":"48412","FILE":"3438010","BSTAR":"0.00104960000000","SEMIMAJOR_AXIS":"6925.388","PERIAPSIS":"545.805","MEAN_MOTION_DDOT":"0.0000000000000","INCLINATION":"53.0532","ECCENTRICITY":"0.00020910","CLASSIFICATION_TYPE":"U","MEAN_ELEMENT_THEORY":"SGP4","GP_ID":"203140835","MEAN_MOTION_DOT":"0.00015381","RCS_SIZE":"LARGE","PERIOD":"95.593","ELEMENT_SET_NO":"999","ARG_OF_PERICENTER":"46.9621","MEAN_MOTION":"15.06387252","DECAY_DATE":null,"OBJECT_TYPE":"PAYLOAD","OBJECT_ID":"2021-038BM","EPOCH":"2022-05-09T22:00:00.999936","COUNTRY_CODE":"US","REF_FRAME":"TEME","SITE":"AFETR","OBJECT_NAME":"STARLINK-2581","LAUNCH_DATE":"2021-05-04","TLE_LINE2":"2 48412  53.0532  95.4466 0002091  46.9621 114.2661 15.06387252  3590"},{"APOAPSIS":"548.261","NORAD_CAT_ID":"48428","REV_AT_EPOCH":"5557","FILE":"3438010","TIME_SYSTEM":"UTC","EPHEMERIS_TYPE":"0","CENTER_NAME":"EARTH","MEAN_ANOMALY":"296.7905","RA_OF_ASC_NODE":"350.6601","TLE_LINE1":"1 48428U 21040A   22129.86997712  .00000377  00000-0  44221-4 0  9992","INCLINATION":"53.0572","ECCENTRICITY":"0.00015220","SEMIMAJOR_AXIS":"6925.342","PERIAPSIS":"546.153","BSTAR":"0.00004422100000","MEAN_MOTION_DDOT":"0.0000000000000","ELEMENT_SET_NO":"999","ARG_OF_PERICENTER":"63.3240","MEAN_MOTION":"15.06402043","OBJECT_TYPE":"PAYLOAD","DECAY_DATE":null,"GP_ID":"203141335","CLASSIFICATION_TYPE":"U","MEAN_ELEMENT_THEORY":"SGP4","PERIOD":"95.592","MEAN_MOTION_DOT":"0.00000377","RCS_SIZE":"LARGE","TLE_LINE2":"2 48428  53.0572 350.6601 0001522  63.3240 296.7905 15.06402043 55574","REF_FRAME":"TEME","OBJECT_NAME":"STARLINK-2461","SITE":"AFETR","LAUNCH_DATE":"2021-05-09","OBJECT_ID":"2021-040A","EPOCH":"2022-05-09T20:52:46.023168","COUNTRY_CODE":"US"},{"PERIOD":"95.605","MEAN_MOTION_DOT":"0.00312194","RCS_SIZE":"LARGE","GP_ID":"203106936","CLASSIFICATION_TYPE":"U","MEAN_ELEMENT_THEORY":"SGP4","DECAY_DATE":null,"OBJECT_TYPE":"PAYLOAD","ELEMENT_SET_NO":"999","MEAN_MOTION":"15.06189954","ARG_OF_PERICENTER":"86.5237","EPOCH":"2022-05-09T22:00:00.999936","COUNTRY_CODE":"US","OBJECT_ID":"2021-040B","TLE_LINE2":"2 48429  53.0547 320.4500 0001368  86.5237 331.9406 15.06189954 57271","REF_FRAME":"TEME","SITE":"AFETR","LAUNCH_DATE":"2021-05-09","OBJECT_NAME":"STARLINK-2749","RA_OF_ASC_NODE":"320.4500","TLE_LINE1":"1 48429U 21040B   22129.91667824  .00312194  00000-0  20181-1 0  9996","TIME_SYSTEM":"UTC","EPHEMERIS_TYPE":"0","CENTER_NAME":"EARTH","MEAN_ANOMALY":"331.9406","FILE":"3437438","NORAD_CAT_ID":"48429","APOAPSIS":"548.805","REV_AT_EPOCH":"5727","MEAN_MOTION_DDOT":"0.0000000000000","PERIAPSIS":"546.910","SEMIMAJOR_AXIS":"6925.992","BSTAR":"0.02018100000000","ECCENTRICITY":"0.00013680","INCLINATION":"53.0547"}];
